KUIPER-00008            
1 63724U 25088A   25200.58335648 -.00084895  00000+0 -52898-2 0  9995
2 63724  51.8848  70.0293 0011773  47.1898  11.6021 15.09354814 13088
KUIPER-00009            
1 63725U 25088B   25200.58335648  .00050744  00000+0  20332-2 0  9998
2 63725  51.8717  64.9151 0011809  70.3920   6.7615 15.24477546  5151
KUIPER-00010            
1 63726U 25088C   25200.33276737  .00008607  00000+0  25365-3 0  9998
2 63726  51.8643  65.6860 0009995  50.9766 309.2109 15.35806526 12748
KUIPER-00011            
1 63727U 25088D   25200.61773895  .00009726  00000+0  28859-3 0  9991
2 63727  51.8588  64.5374 0011733  59.0407 301.1730 15.35412500 12926
KUIPER-00012            
1 63728U 25088E   25200.61638413  .00010336  00000+0  30562-3 0  9991
2 63728  51.8571  64.5180 0011607  60.4978 299.7164 15.35450458 12874
KUIPER-00013            
1 63729U 25088F   25200.58335648 -.00609138  00000+0 -27456-1 0  9994
2 63729  51.8736  65.4277 0008685  40.8125 141.5644 15.22851756  5009
KUIPER-00014            
1 63730U 25088G   25200.58335648  .00028258  00000+0  12328-2 0  9995
2 63730  51.8726  66.2922 0011509  50.8479  90.5091 15.21885369  5092
KUIPER-00015            
1 63731U 25088H   25200.58335648 -.00950073  00000+0 -81780-1 0  9994
2 63731  51.8880  73.4053 0010739  42.8878 159.3663 14.99563139  4817
